NORAD_CAT_ID,OBJECT_NAME,OBJECT_TYPE,EPOCH,MEAN_MOTION,ECCENTRICITY,INCLINATION,RA_OF_ASC_NODE,ARG_OF_PERICENTER,MEAN_ANOMALY,BSTAR,MEAN_MOTION_DOT,MEAN_MOTION_DDOT,TLE_LINE0,TLE_LINE1,TLE_LINE2,SEMIMAJOR_AXIS,PERIOD,APOGEE,PERIGEE,DECAYED
52273.0,STARLINK-3782,PAYLOAD,2022-05-25 22:00:00,15.73292822,0.000383,53.2144,205.4188,4.4553,218.5144,-0.00033021,-0.00046915,0.0,0 STARLINK-3782,1 52273U 22041N   22145.91667824 -.00046915  00000-0 -33021-3 0  9994,2 52273  53.2144 205.4188 0003830   4.4553 218.5144 15.73292822  1303,6727.630999999999,91.528,352.07199999999995,346.9190000000001,0.0
52273.0,STARLINK-3782,PAYLOAD,2022-05-26 06:00:00,15.73263205,0.0003768,53.2145,203.7694,5.5531,306.4267,-0.00047591,-0.00067095,0.0,0 STARLINK-3782,1 52273U 22041N   22146.25001157 -.00067095  00000-0 -47591-3 0  9992,2 52273  53.2145 203.7694 0003768   5.5531 306.4267 15.73263205  6676,6727.715,91.53,352.115,347.045,0.0
52273.0,STARLINK-3782,PAYLOAD,2022-05-26 14:00:01,15.73204595,0.0004046,53.2144,202.1216,2.4504,38.4979,-9.8993e-05,-0.00014503,0.0,0 STARLINK-3782,1 52273U 22041N   22146.58334491 -.00014503  00000-0 -98993-4 0  9997,2 52273  53.2144 202.1216 0004046   2.4504  38.4979 15.73204595  1308,6727.882,91.533,352.469,347.025,0.0
52273.0,STARLINK-3782,PAYLOAD,2022-05-26 20:00:01,15.73228053,0.0003984,53.2144,200.883,0.0724,17.5807,-0.00059902,-0.00084003,0.0,0 STARLINK-3782,1 52273U 22041N   22146.83334491 -.00084003  00000-0 -59902-3 0  9993,2 52273  53.2144 200.8830 0003984   0.0724  17.5807 15.73228053  6761,6727.815,91.532,352.361,347.0,0.0
52273.0,STARLINK-3782,PAYLOAD,2022-05-26 22:00:00,15.73198222,0.0003931,53.2146,200.47,359.3527,130.5412,-0.00026642,-0.00037861,0.0,0 STARLINK-3782,1 52273U 22041N   22146.91667824 -.00037861  00000-0 -26642-3 0  9996,2 52273  53.2146 200.4700 0003931 359.3527 130.5412 15.73198222  1305,6727.9,91.533,352.41,347.121,0.0
52273.0,STARLINK-3782,PAYLOAD,2022-05-27 02:00:01,15.73136152,0.0003877,53.2146,199.6446,0.345,354.0066,0.00047202,0.00065985,0.0,0 STARLINK-3782,1 52273U 22041N   22147.08334491  .00065985  00000-0  47202-3 0  9997,2 52273  53.2146 199.6446 0003877   0.3450 354.0066 15.73136152  6800,6728.0769999999975,91.537,352.551,347.334,0.0
52273.0,STARLINK-3782,PAYLOAD,2022-05-27 14:00:01,15.73176549,0.0004249,53.2144,197.1731,0.5188,307.1654,0.00041629,0.00058172,0.0,0 STARLINK-3782,1 52273U 22041N   22147.58334491  .00058172  00000-0  41629-3 0  9999,2 52273  53.2144 197.1731 0004249   0.5188 307.1654 15.73176549  1308,6727.962,91.535,352.686,346.968,0.0
52273.0,STARLINK-3782,PAYLOAD,2022-05-27 22:00:01,15.73182668,0.0003913,53.2141,195.5214,359.3073,37.3877,0.00014424,0.00019659,0.0,0 STARLINK-3782,1 52273U 22041N   22147.91668981  .00019659  00000-0  14424-3 0  9990,2 52273  53.2141 195.5214 0003913 359.3073  37.3877 15.73182668  6930,6727.945,91.534,352.44199999999995,347.177,0.0
52273.0,STARLINK-3782,PAYLOAD,2022-05-28 14:00:01,15.732660699999998,0.0004151,53.2139,192.2245,359.3347,215.1916,7.9598e-05,0.00010596,0.0,0 STARLINK-3782,1 52273U 22041N   22148.58334491  .00010596  00000-0  79598-4 0  9995,2 52273  53.2139 192.2245 0004151 359.3347 215.1916 15.73266070  7047,6727.706999999999,91.529,352.36400000000015,346.779,0.0
52273.0,STARLINK-3782,PAYLOAD,2022-05-28 22:00:00,15.73215529,0.0004023,53.2141,190.5727,3.589,299.9203,0.00014685,0.00020056,0.0,0 STARLINK-3782,1 52273U 22041N   22148.91667824  .00020056  00000-0  14685-3 0  9998,2 52273  53.2141 190.5727 0004023   3.5890 299.9203 15.73215529  7092,6727.851,91.532,352.423,347.009,0.0
52273.0,STARLINK-3782,PAYLOAD,2022-05-29 14:00:01,15.73183648,0.0004338,53.2137,187.2755,6.7754,114.5788,5.1998e-05,6.677e-05,0.0,0 STARLINK-3782,1 52273U 22041N   22149.58334491  .00006677  00000-0  51998-4 0  9995,2 52273  53.2137 187.2755 0004338   6.7754 114.5788 15.73183648  7191,6727.941999999999,91.534,352.725,346.88800000000015,0.0
52273.0,STARLINK-3782,PAYLOAD,2022-05-29 19:35:07,15.73206206,0.0004135,53.214,186.1212,7.4437,352.6644,-1.6795e-05,-2.983e-05,0.0,0 STARLINK-3782,1 52273U 22041N   22149.81606061 -.00002983  00000-0 -16795-4 0  9990,2 52273  53.2140 186.1212 0004135   7.4437 352.6644 15.73206206  6014,6727.877,91.533,352.524,346.961,0.0
52273.0,STARLINK-3782,PAYLOAD,2022-05-30 14:00:01,15.73238268,0.0004309,53.2132,182.327,5.3618,22.7547,-0.00017131,-0.0002465,0.0,0 STARLINK-3782,1 52273U 22041N   22150.58334491 -.00024650  00000-0 -17131-3 0  9990,2 52273  53.2132 182.3270 0004309   5.3618  22.7547 15.73238268  1305,6727.786,91.531,352.55,346.75199999999984,0.0
52273.0,STARLINK-3782,PAYLOAD,2022-05-30 22:00:00,15.73186244,0.0004042,53.2136,180.6752,4.1563,112.9314,0.00031494,0.00043798,0.0,0 STARLINK-3782,1 52273U 22041N   22150.91667824  .00043798  00000-0  31494-3 0  9996,2 52273  53.2136 180.6752 0004042   4.1563 112.9314 15.73186244  7402,6727.934,91.534,352.519,347.08,0.0
52273.0,STARLINK-3782,PAYLOAD,2022-05-31 06:00:02,15.73194972,0.0004189,53.2139,179.0264,4.1876,201.889,-0.00018621,-0.00026684,0.0,0 STARLINK-3782,1 52273U 22041N   22151.25002315 -.00026684  00000-0 -18621-3 0  9996,2 52273  53.2139 179.0264 0004189   4.1876 201.8890 15.73194972  1301,6727.91,91.533,352.593,346.956,0.0
52273.0,STARLINK-3782,PAYLOAD,2022-05-31 14:00:01,15.73177284,0.0004402,53.2134,177.3779,3.486,291.4346,0.00046735,0.00065445,0.0,0 STARLINK-3782,1 52273U 22041N   22151.58334491  .00065445  00000-0  46735-3 0  9998,2 52273  53.2134 177.3779 0004402   3.4860 291.4346 15.73177284  7518,6727.96,91.535,352.787,346.86300000000006,0.0
52273.0,STARLINK-3782,PAYLOAD,2022-05-31 22:00:00,15.73191702,0.000412,53.2133,175.7262,4.5439,19.3136,0.00062511,0.00088033,0.0,0 STARLINK-3782,1 52273U 22041N   22151.91667824  .00088033  00000-0  62511-3 0  9992,2 52273  53.2133 175.7262 0004120   4.5439  19.3136 15.73191702  1303,6727.919,91.534,352.556,347.01199999999994,0.0
52273.0,STARLINK-3782,PAYLOAD,2022-06-01 06:00:00,15.73282531,0.0004228,53.2134,174.078,3.9125,108.8991,-0.0006995,-0.00098064,0.0,0 STARLINK-3782,1 52273U 22041N   22152.25001157 -.00098064  00000-0 -69950-3 0  9992,2 52273  53.2134 174.0780 0004228   3.9125 108.8991 15.73282531  7619,6727.66,91.528,352.369,346.68,0.0
52273.0,STARLINK-3782,PAYLOAD,2022-06-01 20:00:01,15.73185167,0.0004123,53.2137,171.19,1.0549,177.4559,0.00014543,0.0001983,0.0,0 STARLINK-3782,1 52273U 22041N   22152.83334491  .00019830  00000-0  14543-3 0  9996,2 52273  53.2137 171.1900 0004123   1.0549 177.4559 15.73185167  7706,6727.937,91.534,352.576,347.029,0.0
52273.0,STARLINK-3782,PAYLOAD,2022-06-02 18:06:53,15.73211469,0.0004106,53.2138,166.6308,3.7341,356.3709,7.9072e-07,-5.14e-06,0.0,0 STARLINK-3782,1 52273U 22041N   22153.75478475 -.00000514  00000-0  79072-6 0  9990,2 52273  53.2138 166.6308 0004106   3.7341 356.3709 15.73211469  7854,6727.861999999999,91.533,352.49,346.965,0.0
52273.0,STARLINK-3782,PAYLOAD,2022-06-03 12:24:38,15.73222868,0.0004051,53.2147,162.8561,359.5408,0.5608,7.299e-06,4.01e-06,0.0,0 STARLINK-3782,1 52273U 22041N   22154.51711210  .00000401  00000-0  72990-5 0  9997,2 52273  53.2147 162.8561 0004051 359.5408   0.5608 15.73222868  6757,6727.83,91.532,352.42,346.97,0.0
52273.0,STARLINK-3782,PAYLOAD,2022-06-04 12:48:37,15.72837415,0.000556,53.2148,157.8283,356.5795,3.5186,-0.00057901,-0.00079959,0.0,0 STARLINK-3782,1 52273U 22041N   22155.53376715 -.00079959  00000-0 -57901-3 0  9996,2 52273  53.2148 157.8283 0005560 356.5795   3.5186 15.72837415  8132,6728.929,91.554,354.535,347.05300000000005,0.0
52273.0,STARLINK-3782,PAYLOAD,2022-06-05 22:00:00,15.705356699999998,0.0003458,53.2172,150.9979,330.282,299.1168,-0.0060888,-0.00703309,0.0,0 STARLINK-3782,1 52273U 22041N   22156.91667824 -.00703309  00000-0 -60888-2 0  9993,2 52273  53.2172 150.9979 0003458 330.2820 299.1168 15.70535670  8350,6735.502,91.688,359.696,355.038,0.0
52273.0,STARLINK-3782,PAYLOAD,2022-06-06 14:00:01,15.69532385,0.0002083,53.2172,147.7158,286.3898,153.2407,-0.0066247,-0.0073084,0.0,0 STARLINK-3782,1 52273U 22041N   22157.58334491 -.00730840  00000-0 -66247-2 0  9993,2 52273  53.2172 147.7158 0002083 286.3898 153.2407 15.69532385  8457,6738.371999999999,91.747,361.641,358.833,0.0
52273.0,STARLINK-3782,PAYLOAD,2022-06-06 22:00:00,15.69019311,0.0001028,53.2175,146.0743,358.3905,165.4423,-0.0067218999999999,-0.00726053,0.0,0 STARLINK-3782,1 52273U 22041N   22157.91667824 -.00726053  00000-0 -67219-2 0  9990,2 52273  53.2175 146.0743 0001028 358.3905 165.4423 15.69019311  1308,6739.840999999999,91.777,362.399,361.013,0.0
52273.0,STARLINK-3782,PAYLOAD,2022-06-07 14:00:01,15.67995269,0.0001092,53.2173,142.7995,68.3698,262.0254,-0.0069339,-0.00718566,0.0,0 STARLINK-3782,1 52273U 22041N   22158.58334491 -.00718566  00000-0 -69339-2 0  9990,2 52273  53.2173 142.7995 0001092  68.3698 262.0254 15.67995269  1305,6742.775,91.837,365.376,363.904,0.0
52273.0,STARLINK-3782,PAYLOAD,2022-06-07 22:00:00,15.67483565,0.0001205,53.2173,141.1618,53.9659,358.7924,-0.0070478,-0.00715474,0.0,0 STARLINK-3782,1 52273U 22041N   22158.91667824 -.00715474  00000-0 -70478-2 0  9997,2 52273  53.2173 141.1618 0001205  53.9659 358.7924 15.67483565  8667,6744.2419999999975,91.867,366.92,365.295,0.0
52273.0,STARLINK-3782,PAYLOAD,2022-06-08 14:00:01,15.66466032,0.0001222,53.2174,137.8943,75.8644,139.7778,-0.0073928,-0.00719611,0.0,0 STARLINK-3782,1 52273U 22041N   22159.58334491 -.00719611  00000-0 -73928-2 0  9992,2 52273  53.2174 137.8943 0001222  75.8644 139.7778 15.66466032  1304,6747.163000000001,91.927,369.852,368.203,0.0
52273.0,STARLINK-3782,PAYLOAD,2022-06-08 22:00:01,15.65953578,0.0001232,53.2177,136.2604,60.8358,235.3963,-0.0074882,-0.00714374,0.0,0 STARLINK-3782,1 52273U 22041N   22159.91668981 -.00714374  00000-0 -74882-2 0  9994,2 52273  53.2177 136.2604 0001232  60.8358 235.3963 15.65953578  8829,6748.635,91.957,371.331,369.668,0.0
